STARLINK-3703           
1 52101U 22029P   26008.26236885  .00000194  00000+0  30262-4 0  9990
2 52101  53.2196   0.5831 0001245  92.9058 267.2076 15.08835816211525
STARLINK-3709           
1 52102U 22029Q   26008.25318617 -.00001348  00000+0 -66611-4 0  9995
2 52102  53.2216 350.4364 0001705  99.2138 260.9047 15.08829991211667
STARLINK-3705           
1 52103U 22029R   26008.22646166 -.00001393  00000+0 -69446-4 0  9995
2 52103  53.2206 350.5513 0001515  94.5787 265.5378 15.08839899211656
STARLINK-3706           
1 52105U 22029T   26008.22006800  .00000253  00000+0  33988-4 0  9996
2 52105  53.2185 350.5804 0001242  90.5630 269.5505 15.08841520211657
STARLINK-3670           
1 52106U 22029U   26008.24026011 -.00000274  00000+0  88010-6 0  9997
2 52106  53.2188   0.4891 0001281  86.0770 274.0369 15.08845765211526
STARLINK-3658           
1 52107U 22029V   26008.21542373  .00001455  00000+0  10947-3 0  9991
2 52107  53.2186 350.5985 0001341  83.7745 276.3400 15.08837315211658
STARLINK-3698           
1 52108U 22029W   26008.22278264 -.00000611  00000+0 -20332-4 0  9993
2 52108  53.2189 350.5666 0001371  94.3296 265.7853 15.08840978211653
STARLINK-3687           
1 52110U 22029Y   26008.21909896 -.00000279  00000+0  57507-6 0  9992
2 52110  53.2192 350.5828 0001422  90.4307 269.6848 15.08843895211655
STARLINK-3708           
1 52111U 22029Z   26008.20438543 -.00000582  00000+0 -18451-4 0  9999
2 52111  53.2189 350.6496 0001455  86.7867 273.3292 15.08840996211653
STARLINK-3734           
1 52112U 22029AA  26008.21174072 -.00000170  00000+0  74372-5 0  9992
2 52112  53.2192 350.6149 0001467  92.4207 267.6953 15.08843695211657
STARLINK-3736           
1 52113U 22029AB  26008.26326240  .00000819  00000+0  69513-4 0  9993
2 52113  53.2198 350.3860 0001418  90.7759 269.3396 15.08844646211668
STARLINK-3737           
1 52114U 22029AC  26008.20805895 -.00000233  00000+0  34726-5 0  9996
2 52114  53.2191 350.6322 0001345  84.8947 275.2199 15.08848518211658
STARLINK-3685           
1 52115U 22029AD  26008.25590638 -.00000174  00000+0  71285-5 0  9993
2 52115  53.2201 350.4202 0001298  91.1988 268.9153 15.08836815211666
STARLINK-3735           
1 52116U 22029AE  26008.26694267  .00001032  00000+0  82926-4 0  9994
2 52116  53.2186 350.3678 0001328  88.3360 271.7785 15.08844833211663
STARLINK-3738           
1 52117U 22029AF  26008.31478473  .00000418  00000+0  44327-4 0  9990
2 52117  53.2204 350.1572 0001491  91.8494 268.2669 15.08836819211683
STARLINK-3743           
1 52118U 22029AG  26008.25958372 -.00000047  00000+0  15126-4 0  9999
2 52118  53.2206 350.4044 0001534  98.8025 261.3141 15.08839212211665
STARLINK-3558           
1 52119U 22029AH  26008.24118349 -.00000459  00000+0 -10745-4 0  9991
2 52119  53.2192 350.4872 0001361  90.7162 269.3986 15.08837678211669
STARLINK-3534           
1 52120U 22029AJ  26008.25222225 -.00001811  00000+0 -95758-4 0  9993
2 52120  53.2217 350.4400 0001590  85.2128 274.9046 15.08830264211675
STARLINK-3678           
1 52121U 22029AK  26008.28994544 -.00000833  00000+0 -34255-4 0  9995
2 52121  53.2202 340.2688 0001514  97.6412 262.4753 15.08839733211806
STARLINK-3726           
1 52122U 22029AL  26008.24486205  .00000407  00000+0  43651-4 0  9997
2 52122  53.2192 350.4696 0001316  86.2505 273.8638 15.08837119211662
STARLINK-3725           
1 52123U 22029AM  26008.19887389  .00000408  00000+0  43719-4 0  9996
2 52123  53.2186 340.4962 0001547  86.9082 273.2087 15.08838983211802
STARLINK-3727           
1 52125U 22029AP  26008.21266361  .00000819  00000+0  69551-4 0  9990
2 52125  53.2196 340.6153 0001290  94.1376 265.9763 15.08835325211807
STARLINK-3732           
1 52126U 22029AQ  26008.22002594 -.00000617  00000+0 -20665-4 0  9999
2 52126  53.2201 340.5832 0001387  95.6494 264.4657 15.08836649211796
STARLINK-3715           
1 52127U 22029AR  26008.20898260 -.00000237  00000+0  31739-5 0  9993
2 52127  53.2194 340.6310 0001350  94.0089 266.1057 15.08843439211791
STARLINK-3661           
1 52129U 22029AT  26008.20162064  .00000371  00000+0  41371-4 0  9991
2 52129  53.2191 340.6612 0001482  93.4574 266.6587 15.08843314211800
STARLINK-3711           
1 52131U 22029AV  26008.30976145  .00031899  00000+0  19070-2 0  9996
2 52131  53.2168 339.9585 0005041  68.8051 291.3480 15.10810134211824
STARLINK-3718           
1 52132U 22029AW  26008.13906153  .00000119  00000+0  25563-4 0  9997
2 52132  53.2192 340.9427 0001170  83.6170 276.4955 15.08838592211797
STARLINK-3707           
1 52133U 22029AX  26008.19058252 -.00000083  00000+0  12888-4 0  9999
2 52133  53.2180 340.7104 0001382  91.8449 268.2702 15.08842599211803
STARLINK-3721           
1 52134U 22029AY  26008.19426082 -.00000993  00000+0 -44298-4 0  9991
2 52134  53.2193 340.6948 0001334  85.8528 274.2617 15.08840494211805
STARLINK-3729           
1 52135U 22029AZ  26008.31297746  .00000458  00000+0  46830-4 0  9997
2 52135  53.2194 340.1719 0001342  89.7808 270.3339 15.08846873211828
STARLINK-3720           
1 52136U 22029BA  26008.18690757 -.00001574  00000+0 -80863-4 0  9998
2 52136  53.2189 340.7278 0001279  89.6024 270.5115 15.08831879211809
STARLINK-3733           
1 52137U 22029BB  26008.30834083 -.00000059  00000+0  14393-4 0  9996
2 52137  53.2178 340.1826 0001365  90.0263 270.0885 15.08843973211827
STARLINK-3723           
1 52138U 22029BC  26008.31569871 -.00000036  00000+0  15795-4 0  9990
2 52138  53.2183 340.1482 0001325  95.5054 264.6089 15.08845245211825
STARLINK-3730           
1 52139U 22029BD  26008.23014307 -.00000317  00000+0 -18440-5 0  9995
2 52139  53.2196 350.5347 0001325  94.4752 265.6392 15.08841666211661
STARLINK-3682           
1 52140U 22029BE  26008.30465683 -.00000407  00000+0 -74959-5 0  9999
2 52140  53.2187 340.2001 0001805 119.1288 240.9885 15.08849423211828
MERIDIAN 10             
1 52145U 22030A   26007.46443920  .00000310  00000+0  00000+0 0  9993
2 52145  62.6696 157.8818 6746999 273.0333  17.8688  2.00599326 27804
TK-2                    
1 52150U 22031A   26008.28980148  .00003359  00000+0  25745-3 0  9992
2 52150  97.8317 202.6003 0015996 305.9072  54.0667 15.02442670206444
PUJIANG 2 (PJ-2)        
1 52151U 22031B   26008.32489411  .00001014  00000+0  10036-3 0  9998
2 52151  97.8543 193.7316 0012402  20.4248 339.7465 14.94068095205922
TIANPING 2A             
1 52153U 22032A   26008.25669983  .00002172  00000+0  19517-3 0  9996
2 52153  97.6081  50.4911 0010447   5.5885 354.5451 14.96672273205917
TIANPING 2B             
1 52155U 22032C   26008.33709949  .00003091  00000+0  24655-3 0  9994
2 52155  97.6071  56.9832 0021987 345.7673  14.2929 15.00853112206297
TIANPING 2C             
1 52156U 22032D   26008.29155390  .00006619  00000+0  41833-3 0  9991
2 52156  97.6063  61.9717 0006590 356.7921   3.3264 15.09355006206714
OMNI-L1                 
1 52157U 22033A   26008.20563556  .00002773  00000+0  35619-3 0  9993
2 52157  97.8536  90.4913 0006538  88.2431 271.9531 14.81973219203754
GNOMES-3                
1 52158U 22033B   26008.17932406  .00002306  00000+0  28099-3 0  9990
2 52158  97.8389  87.3285 0012108 124.9099 235.3255 14.84307602203595
ENMAP                   
1 52159U 22033C   26008.40445130  .00000632  00000+0  10137-3 0  9994
2 52159  97.9771  92.9345 0001250  94.3314 265.8038 14.74988287203104
ARCSAT-1                
1 52161U 22033E   26008.23268427  .00013723  00000+0  25428-3 0  9994
2 52161  97.2800  98.6588 0006407  63.7887 296.4022 15.49084613210901
LYNK TOWER 1            
1 52162U 22033F   26008.28066463  .00098276  00000+0  48751-3 0  9996
2 52162  97.2786 109.4454 0001626 356.8399   3.2859 15.81716139211623
NUSAT-26 (M SOMERVILLE) 
1 52184U 22033AD  26008.24896882  .00015079  00000+0  43439-3 0  9990
2 52184  97.2519  89.1888 0007660  99.9635 260.2474 15.35806410 80104
GLOBAL-18               
1 52196U 22034B   26008.19358322  .00023534  00000+0  60191-3 0  9999
2 52196  52.9836 297.3886 0007161 110.0687 250.1087 15.39321400212263
GAOFEN-3 03             
1 52200U 22035A   26008.31340315  .00000209  00000+0  76755-4 0  9991
2 52200  98.4094  19.1901 0001048  62.8841 297.2455 14.42214688197807
COSMOS 2554             
1 52202U 22036A   26008.29522186 -.00000054  00000+0  15263-4 0  9995
2 52202  67.1473 257.2867 0007238 269.4792  90.5463 13.96671903191628
ZHONGXING-6D            
1 52255U 22038A   26007.35545642 -.00000352  00000+0  00000+0 0  9992
2 52255   0.0299 254.2385 0003020  23.9055  81.8006  1.00268967 13814
DAQI 1                  
1 52257U 22039A   26008.27172418  .00000707  00000+0  16509-3 0  9992
2 52257  98.1346 310.5798 0004591  43.2702 316.8857 14.57587102198640
STARLINK-3761           
1 52262U 22041B   26008.30097788 -.00001389  00000+0 -69181-4 0  9995
2 52262  53.2196  20.1692 0001279  87.0577 273.0562 15.08838128205240
STARLINK-3786           
1 52263U 22041C   26008.23842188 -.00001007  00000+0 -45198-4 0  9999
2 52263  53.2203  20.4981 0001484  93.3397 266.7765 15.08834512205238
STARLINK-3795           
1 52264U 22041D   26008.29729860  .00000168  00000+0  28621-4 0  9994
2 52264  53.2208  20.2336 0001578  93.6159 266.5013 15.08843143205244
STARLINK-3740           
1 52265U 22041E   26008.29362448 -.00000146  00000+0  88916-5 0  9991
2 52265  53.2192  20.2503 0001378  84.5803 275.5346 15.08838281205242
STARLINK-3739           
1 52266U 22041F   26008.28994305  .00000636  00000+0  58030-4 0  9990
2 52266  53.2190  20.2653 0001378  89.3632 270.7518 15.08840325205240
STARLINK-3748           
1 52267U 22041G   26008.28626269  .00000070  00000+0  22512-4 0  9990
2 52267  53.2188  20.2878 0001328  91.6998 268.4147 15.08839861205248
STARLINK-3746           
1 52268U 22041H   26008.26785883  .00011428  00000+0  73615-3 0  9995
2 52268  53.2208  20.2884 0001950 109.9721 250.1482 15.08780874205246
